{
  "norad_id": 51879,
  "name": "STARLINK-3572",
  "history": [
    {
      "epoch": "2026-03-28T19:00:13.621248",
      "apogee_km": 540.652281036073,
      "perigee_km": 538.8240249906348,
      "latitude_deg": -53.21058334327545,
      "longitude_deg": 163.9151347198058,
      "semi_major_axis_km": 6917.875153013353,
      "eccentricity": 0.00013214,
      "inclination_deg": 53.2175,
      "raan_deg": 273.3669,
      "arg_perigee_deg": 97.3754,
      "mean_anomaly_deg": 262.7389,
      "mean_motion_rev_day": 15.08841713
    }
  ]
}