{"fetched_at":"2026-03-30T06:02:59Z","count":15439,"tles":[{"name":"STARLINK-3572","line1":"1 51879U 22022AD  26087.79182432 -.00000350  00000+0 -39109-5 0  9993","line2":"2 51879  53.2175 273.3669 0001321  97.3754 262.7389 15.08841713226132","category":"Starlink"}]}